0 SL-14 DEB
1 26024U 91068AK  14201.81052998 -.00000035  00000-0 -33006-3 0  4752
2 26024 082.7011 132.9874 0277999 031.9408 357.3928 12.32863170 36725
0 SL-14 DEB
1 26025U 91068AL  14197.83455152 -.00000100  00000-0 -78928-3 0  2515
2 26025 082.7227 140.1686 0260925 008.7159 022.6056 12.34196152 40891
0 SL-14 DEB
1 26026U 91068AM  14201.53454398  .00000060  00000-0  27202-3 0  2691
2 26026 082.5101 219.0807 0089531 283.4400 200.7119 12.62897190687847
0 SL-14 DEB
1 26027U 91068AN  14201.02497145  .00000179  00000-0  13440-2 0  4436
2 26027 083.2900 030.3450 0116067 196.1819 288.5072 12.33423020677992
0 SL-14 DEB
1 26028U 91068AP  14199.61667791  .00000060  00000-0  34721-3 0  3922
2 26028 082.6971 053.5836 0024030 029.8570 026.8247 12.45560406692226
0 SL-14 DEB
1 26029U 91068AQ  14199.74133851  .00000008  00000-0 -14818-4 0  8364
2 26029 082.5763 290.4454 0038585 049.9477 077.4170 12.56162922698925
0 SL-14 DEB
1 26030U 91068AU  14200.93494956  .00000275  00000-0  13809-2 0  2935
2 26030 082.6662 278.9355 0081005 161.9837 198.3384 12.66134645497566
0 KOMPSAT
1 26032U 99070A   14201.79478311  .00000180  00000-0  39557-4 0  3149
2 26032 097.7582 019.1008 0006273 080.4023 279.7894 14.67621982779990
0 ACRIMSAT
1 26033U 99070B   14201.71462657  .00000059  00000-0  20771-4 0  2049
2 26033 097.8136 018.2261 0029709 098.7512 030.2995 14.61453401777030
0 CELESTIS 03/TAURUS R/B
1 26034U 99070C   14201.82473292  .00002118  00000-0  21296-3 0  1576
2 26034 098.2278 308.9989 0014974 106.1101 254.1766 14.92324593786020
0 TAURUS DEB
1 26035U 99070D   14200.44816551  .00000066  00000-0  22421-4 0  2565
2 26035 097.8354 008.1197 0028404 110.8006 302.1116 14.61008893776637
0 DELTA 1 DEB
1 26036U 75052KA  14201.76141310  .00000964  00000-0  37415-3 0  6008
2 26036 099.9908 009.7923 0133596 276.7531 201.0656 14.28075817808156
0 SL-12 DEB
1 26037U 87079W   14200.05853942  .00000110  00000-0  12737-2 0  8883
2 26037 065.1449 013.6215 5455890 263.6024 034.8007 04.48088637265649
0 GALAXY 11
1 26038U 99071A   14200.37019935 -.00000305  00000-0  10000-3 0  9183
2 26038 000.0190 218.6666 0001710 327.0185 189.0513 01.00271673 53485
0 COSMOS 2368
1 26042U 99073A   14199.42639729 -.00000567  00000-0  00000+0 0  8052
2 26042 067.4149 236.3992 5495047 250.9141 293.5079 02.00807597106647
0 SL-6 R/B(2)
1 26045U 99073D   14199.22658111  .00000498  00000-0  00000+0 0  9388
2 26045 066.5390 215.8581 5821523 242.4863 290.0443 02.04168919108543
0 TITAN 3C TRANSTAGE DEB
1 26048U 65108AG  14200.98057817  .00000085  00000-0  20981-3 0  7233
2 26048 026.4895 264.8701 6387245 318.3321 332.3418 03.41265561181142
0 TITAN 3C TRANSTAGE DEB
1 26049U 65108AH  14199.58422887 -.00000384  00000-0 -75496-3 0  8539
2 26049 027.2006 133.7373 4873074 234.3624 070.0359 05.55785238299646
0 TITAN 3C TRANSTAGE DEB
1 26050U 65108AJ  14199.76224519 -.00000284  00000-0 -13349-1 0  4591
2 26050 026.2778 114.1273 6637912 322.3712 333.3642 02.69652070148992
0 GALAXY 10R
1 26056U 00002A   14201.72977869  .00000088  00000-0  00000+0 0  4208
2 26056 005.2575 060.4971 0007856 056.2605 302.9335 00.99639894 52988
0 CHINASAT 22
1 26058U 00003A   14199.56351392 -.00000075  00000-0  00000+0 0  4371
2 26058 005.3480 058.6933 0002773 119.8100 195.9906 00.97321917 52900
0 OPAL
1 26063U 00004C   14201.45561713 -.00000007  00000-0  17638-4 0   135
2 26063 100.2161 353.6372 0037204 065.1225 295.3816 14.36380267758808
0 FALCONSAT
1 26064U 00004D   14201.00780361 -.00000017  00000-0  14282-4 0  9883
2 26064 100.2153 349.8054 0038517 077.2761 033.6374 14.35873003758515
0 MINOTAUR R/B
1 26066U 00004F   14201.02203708 -.00000010  00000-0  16533-4 0  3992
2 26066 100.2256 003.5546 0033694 047.2355 062.1261 14.37285318759193
0 COSMOS 2369
1 26069U 00006A   14201.80021185  .00000036  00000-0  44406-4 0  2985
2 26069 070.9969 064.4571 0011090 029.7924 022.2389 14.13249112746029
0 SL-16 R/B
1 26070U 00006B   14199.81521232 -.00000020  00000-0  14014-4 0  2630
2 26070 071.0022 033.3573 0016254 179.2754 180.8395 14.15333761746865
0 HISPASAT 1C
1 26071U 00007A   14200.45359593 -.00000231  00000-0  10000-3 0  2841
2 26071 000.0327 043.2661 0002087 076.3766 256.9654 01.00270810 53020
0 ATLAS 2AS CENTAUR R/B
1 26072U 00007B   14200.40111251  .00020279  00000-0  12749-2 0  7584
2 26072 018.0886 106.9412 4467266 039.8745 203.8253 06.60112804264030
0 SL-16 DEB
1 26073U 00006C   14201.80635816  .00000017  00000-0  54092-4 0  2646
2 26073 071.0782 090.8890 0193935 065.6835 356.9659 13.73756541724943
0 SL-16 DEB
1 26074U 00006D   14200.17750957 -.00000001  00000-0  41548-4 0  2590
2 26074 070.9646 110.4728 0216037 241.4587 236.8267 13.69247698763146
0 SL-16 DEB
1 26075U 00006E   14201.03569366  .00000020  00000-0  56243-4 0  2733
2 26075 071.0656 059.7868 0188851 083.2124 029.6758 13.75358996725648
0 IUS DEB
1 26076U 99040E   14200.87353937  .00006507  00000-0  60614-3 0  4088
2 26076 028.4722 063.6884 4677696 093.9514 002.3555 06.20691886245242
0 SL-16 DEB
1 26077U 00006G   14200.08001942  .00000004  00000-0  44317-4 0  2573
2 26077 070.9711 062.5034 0204629 173.7893 340.4884 13.72351230723886
0 MINOTAUR DEB
1 26079U 00004G   14201.75917944  .00000168  00000-0  68543-4 0  4105
2 26079 100.2297 034.9637 0033583 333.0085 086.8862 14.42372639759610
0 PICOSAT 1&2 (TETHERED)
1 26080U 00004H   14200.09100547  .00000117  00000-0  53629-4 0  4187
2 26080 100.2279 033.3361 0031507 337.7291 146.4647 14.42007088759036
0 GLOBALSTAR M063
1 26081U 00008A   14201.84812301 -.00000103  00000-0  38132-5 0  4442
2 26081 051.9989 343.5014 0000392 089.5677 066.7298 12.62270585674829
0 GLOBALSTAR M062
1 26082U 00008B   14201.85112538 -.00000071  00000-0  19784-3 0  3824
2 26082 051.9867 290.5192 0004187 204.8284 258.7116 12.42859906663485
0 GLOBALSTAR M060
1 26083U 00008C   14201.80823819 -.00000218  00000-0 -12686-2 0  4447
2 26083 052.0033 047.2091 0001911 296.4484 195.6348 12.17516620667170
0 GLOBALSTAR M064
1 26084U 00008D   14200.99349956 -.00000109  00000-0 -36928-4 0  7328
2 26084 052.0072 348.3529 0001916 115.1882 044.6791 12.58334200692674
0 DUMSAT
1 26086U 00009A   14201.80191958 -.00000092  00000-0  63943-5 0  7226
2 26086 064.8546 315.2419 0023749 277.3775 234.6109 14.94636884787926
0 GARUDA 1
1 26089U 00011A   14199.67629419 -.00000376  00000-0  00000+0 0  4615
2 26089 001.2895 223.9848 0003639 311.3419 127.4860 01.00270973 52870
0 SL-12 R/B(2)
1 26090U 00011B   14197.71001612 -.00000249  00000-0  00000+0 0  1592
2 26090 017.3468 022.0264 5386817 085.1295 359.4873 01.90707592100507
0 PICOSAT 3
1 26091U 00004J   14201.67259229  .00000293  00000-0  97742-4 0  1317
2 26091 100.2103 058.4405 0029187 263.2996 096.4868 14.46647218759877
0 PICOSAT 4
1 26092U 00004K   14201.02989220  .00000134  00000-0  58538-4 0  9286
2 26092 100.2176 026.3114 0033902 328.2811 153.6317 14.42221127758403
0 PICOSAT 5
1 26093U 00004L   14200.91533549  .00000297  00000-0  94973-4 0  8555
2 26093 100.1994 069.7936 0030061 231.3754 128.4741 14.48694979760710
0 PICOSAT 6
1 26094U 00004M   14200.47451858  .00000118  00000-0  54638-4 0  8296
2 26094 100.2228 022.3130 0034244 347.9977 040.0579 14.41330734757691
0 SUPERBIRD 4
1 26095U 00012A   14199.60081378 -.00000113  00000-0  00000+0 0  7759
2 26095 000.0328 245.7695 0002030 234.1097 194.7080 01.00271808 52841
0 ARIANE 44LP R/B
1 26096U 00012B   14201.35169913  .00000932  00000-0  86847-3 0  8642
2 26096 005.0414 270.7256 7121066 274.5827 039.4493 02.43879122123158
0 EXPRESS 2A
1 26098U 00013A   14201.49792201 -.00000378  00000-0  10000-3 0  3370
2 26098 007.2872 053.7329 0025062 092.9265 091.6240 01.00489495 52571
0 SL-12 R/B(2)
1 26101U 00013D   14199.28320904 -.00000187  00000-0  00000+0 0  5189
2 26101 011.8210 040.1945 0005665 344.7816 341.7052 01.00755520 52805
0 MTI
1 26102U 00014A   14201.86541211  .00003815  00000-0  14801-3 0  2911
2 26102 097.4497 330.5734 0014632 116.6154 050.0381 15.26636153791167
0 TAURUS R/B
1 26103U 00014B   14201.76845447 -.00000021  00000-0  25049-5 0  7357
2 26103 097.2406 254.1667 0030862 351.2780 146.5928 15.07706081786740
0 FREGAT RB/CLUSTER 2
1 26106U 00015A   14201.03144799  .00000031  00000-0  27487-4 0  9497
2 26106 064.9799 127.4470 5477060 120.6418 348.9175 04.58502869238363
0 ASIASTAR
1 26107U 00016A   14201.76211674 -.00000351  00000-0  00000+0 0  7060
2 26107 000.0592 355.1817 0004465 120.5138 202.1197 01.00269713 52539
0 INSAT 3B
1 26108U 00016B   14200.10842332 -.00000003  00000-0  00000+0 0  4914
2 26108 002.2226 072.7406 0005799 075.9906 263.4103 00.99653062 52382
0 ARIANE 5 DEB (SYLDA)
1 26109U 00016C   14201.13904807 -.00000245  00000-0 -28818-4 0  7863
2 26109 006.5067 141.7192 7159748 160.8148 352.4202 02.27091703118726
0 ARIANE 5 R/B
1 26110U 00016D   14201.37993478 -.00000014  00000-0  12313-2 0  4213
2 26110 006.5125 215.0721 7090945 021.6804 016.4407 02.27170087118987
0 COSMOS 1823 DEB
1 26111U 87020DS  14200.22079022  .00000017  00000-0  25128-3 0  1721
2 26111 073.6016 111.5964 0029257 351.5400 128.3890 12.42243077242489
0 IMAGE
1 26113U 00017A   14200.16143241  .00000337  00000-0  22565-1 0  5743
2 26113 092.9522 236.7899 7280842 069.5717 292.4119 01.68645167 88147
0 DELTA 2 R/B(2)
1 26115U 00017C   14200.92816183  .00000312  00000-0 -19438-1 0  5076
2 26115 092.9614 236.9547 7284305 071.0207 350.2918 01.68202807 87917
0 CZ-4 DEB
1 26118U 99057E   14201.81745218  .00000768  00000-0  36016-3 0  6450
2 26118 098.9637 156.3080 0310102 180.1148 245.3969 14.00658873731332
0 CZ-4 DEB
1 26119U 99057F   14199.33883359  .00000729  00000-0  63771-3 0  4322
2 26119 099.3855 317.3973 0509499 208.0173 224.2797 13.41722042701366
0 CZ-4 DEB
1 26121U 99057H   14201.77345486  .00000354  00000-0  44039-4 0   597
2 26121 098.7073 092.3928 0065017 351.6607 008.3520 14.88529621775674
